NORAD_CAT_ID,OBJECT_NAME,OBJECT_TYPE,EPOCH,MEAN_MOTION,ECCENTRICITY,INCLINATION,RA_OF_ASC_NODE,ARG_OF_PERICENTER,MEAN_ANOMALY,BSTAR,MEAN_MOTION_DOT,MEAN_MOTION_DDOT,TLE_LINE0,TLE_LINE1,TLE_LINE2,SEMIMAJOR_AXIS,PERIOD,APOGEE,PERIGEE,DECAYED
53981.0,STARLINK-5149,PAYLOAD,2024-03-25 04:57:19,15.08809371,0.00013,53.2162,171.3282,78.4518,281.662,-0.0001672,-2.946e-05,0.0,0 STARLINK-5149,1 53981U 22125T   24085.20647335 -.00002946  00000-0 -16720-3 0  9999,2 53981  53.2162 171.3282 0001300  78.4518 281.6620 15.08809371 81813,6917.974,95.439,540.738,538.94,0.0
53981.0,STARLINK-5149,PAYLOAD,2024-03-25 12:54:13,15.08858717,0.0001307,53.2154,169.8422,68.4016,291.7115,0.0004595,7.036e-05,0.0,0 STARLINK-5149,1 53981U 22125T   24085.53765187  .00007036  00000-0  45950-3 0  9991,2 53981  53.2154 169.8422 0001307  68.4016 291.7115 15.08858717 81865,6917.823,95.436,540.592,538.784,0.0
53981.0,STARLINK-5149,PAYLOAD,2024-03-26 04:48:05,15.08820523,0.0001488,53.2152,166.8775,90.1475,269.9687,-0.00037079,-6.181e-05,0.0,0 STARLINK-5149,1 53981U 22125T   24086.20006942 -.00006181  00000-0 -37079-3 0  9998,2 53981  53.2152 166.8775 0001488  90.1475 269.9687 15.08820523 81968,6917.94,95.439,540.834,538.776,0.0
53981.0,STARLINK-5149,PAYLOAD,2024-03-26 12:45:02,15.08806821,0.0001751,53.2162,165.3864,75.3927,284.726,-0.00030564,-5.145e-05,0.0,0 STARLINK-5149,1 53981U 22125T   24086.53128304 -.00005145  00000-0 -30564-3 0  9992,2 53981  53.2162 165.3864 0001751  75.3927 284.7260 15.08806821 82016,6917.982,95.44,541.058,538.635,0.0
53981.0,STARLINK-5149,PAYLOAD,2024-03-26 22:17:22,15.08816739,0.0001524,53.2157,163.5986,88.0257,272.0909,0.00018193,2.607e-05,0.0,0 STARLINK-5149,1 53981U 22125T   24086.92872720  .00002607  00000-0  18193-3 0  9995,2 53981  53.2157 163.5986 0001524  88.0257 272.0909 15.08816739 82008,6917.951,95.439,540.871,538.762,0.0
53981.0,STARLINK-5149,PAYLOAD,2024-03-27 12:35:49,15.08847864,0.0001557,53.2153,160.9248,83.3904,276.7265,0.00083842,0.00013083,0.0,0 STARLINK-5149,1 53981U 22125T   24087.52488378  .00013083  00000-0  83842-3 0  9997,2 53981  53.2153 160.9248 0001557  83.3904 276.7265 15.08847864 82165,6917.856,95.437,540.798,538.644,0.0
53981.0,STARLINK-5149,PAYLOAD,2024-03-27 22:08:08,15.08848778,0.0001652,53.2144,159.1421,82.9535,277.1645,0.00078377,0.00012211,0.0,0 STARLINK-5149,1 53981U 22125T   24087.92232465  .00012211  00000-0  78377-3 0  9994,2 53981  53.2144 159.1421 0001652  82.9535 277.1645 15.08848778 82150,6917.854,95.437,540.861,538.576,0.0
53981.0,STARLINK-5149,PAYLOAD,2024-03-28 04:29:41,15.08853254,0.0001703,53.2137,157.9536,82.6747,277.4438,0.00045044,6.891e-05,0.0,0 STARLINK-5149,1 53981U 22125T   24088.18728128  .00006891  00000-0  45044-3 0  9991,2 53981  53.2137 157.9536 0001703  82.6747 277.4438 15.08853254 82264,6917.84,95.437,540.883,538.527,0.0
53981.0,STARLINK-5149,PAYLOAD,2024-03-28 10:51:13,15.08854554,0.0001635,53.2149,156.7613,100.0498,260.0679,0.00053902,8.304e-05,0.0,0 STARLINK-5149,1 53981U 22125T   24088.45223964  .00008304  00000-0  53902-3 0  9992,2 53981  53.2149 156.7613 0001635 100.0498 260.0679 15.08854554 82238,6917.836,95.437,540.832,538.57,0.0
53981.0,STARLINK-5149,PAYLOAD,2024-03-28 21:58:55,15.0885164,0.0001704,53.2151,154.6807,90.0046,270.1142,0.00014618,2.04e-05,0.0,0 STARLINK-5149,1 53981U 22125T   24088.91591632  .00002040  00000-0  14618-3 0  9995,2 53981  53.2151 154.6807 0001704  90.0046 270.1142 15.08851640 82305,6917.845,95.437,540.889,538.531,0.0
53981.0,STARLINK-5149,PAYLOAD,2024-03-29 13:52:46,15.08852064,0.0001895,53.2172,151.705,102.777,257.3434,0.00019133,2.759e-05,0.0,0 STARLINK-5149,1 53981U 22125T   24089.57831421  .00002759  00000-0  19133-3 0  9995,2 53981  53.2172 151.7050 0001895 102.7770 257.3434 15.08852064 82405,6917.844,95.437,541.019,538.398,0.0
53981.0,STARLINK-5149,PAYLOAD,2024-03-30 04:11:13,15.08869361,0.0001636,53.2153,149.0311,95.3339,264.784,0.00047208,7.239e-05,0.0,0 STARLINK-5149,1 53981U 22125T   24090.17446125  .00007239  00000-0  47208-3 0  9998,2 53981  53.2153 149.0311 0001636  95.3339 264.7840 15.08869361 82563,6917.791,95.436,540.787,538.524,0.0
53981.0,STARLINK-5149,PAYLOAD,2024-03-30 10:32:47,15.08826491,0.0001332,53.2145,147.8423,81.1532,278.9611,-0.00045243,-7.478e-05,0.0,0 STARLINK-5149,1 53981U 22125T   24090.43943316 -.00007478  00000-0 -45243-3 0  9995,2 53981  53.2145 147.8423 0001332  81.1532 278.9611 15.08826491 82600,6917.922,95.438,540.708,538.865,0.0
53981.0,STARLINK-5149,PAYLOAD,2024-03-31 04:02:01,15.0883461,0.0001321,53.2158,144.5701,84.7841,275.3302,3.8538e-05,3.25e-06,0.0,0 STARLINK-5149,1 53981U 22125T   24091.16807770  .00000325  00000-0  38538-4 0  9991,2 53981  53.2158 144.5701 0001321  84.7841 275.3302 15.08834610 82719,6917.897,95.438,540.676,538.848,0.0
53981.0,STARLINK-5149,PAYLOAD,2024-03-31 10:23:33,15.08851542,0.0001394,53.2148,143.3829,77.9663,282.1486,0.0004328,6.609e-05,0.0,0 STARLINK-5149,1 53981U 22125T   24091.43303198  .00006609  00000-0  43280-3 0  9996,2 53981  53.2148 143.3829 0001394  77.9663 282.1486 15.08851542 82758,6917.845,95.437,540.674,538.746,0.0
53981.0,STARLINK-5149,PAYLOAD,2024-03-31 19:55:53,15.08838992,0.0001298,53.2148,141.5974,74.2765,285.837,0.00044514,6.803e-05,0.0,0 STARLINK-5149,1 53981U 22125T   24091.83047725  .00006803  00000-0  44514-3 0  9998,2 53981  53.2148 141.5974 0001298  74.2765 285.8370 15.08838992 82818,6917.883,95.438,540.646,538.851,0.0
53981.0,STARLINK-5149,PAYLOAD,2024-04-01 11:49:44,15.08842693,0.0001298,53.2155,138.6233,85.5796,274.5344,0.00038737,5.883e-05,0.0,0 STARLINK-5149,1 53981U 22125T   24092.49287928  .00005883  00000-0  38737-3 0  9999,2 53981  53.2155 138.6233 0001298  85.5796 274.5344 15.08842693 82842,6917.872,95.437,540.635,538.839,0.0
53981.0,STARLINK-5149,PAYLOAD,2024-04-01 19:46:40,15.0884467,0.0001251,53.2145,137.1364,83.4519,276.6615,0.00036601,5.543e-05,0.0,0 STARLINK-5149,1 53981U 22125T   24092.82407868  .00005543  00000-0  36601-3 0  9994,2 53981  53.2145 137.1364 0001251  83.4519 276.6615 15.08844670 82963,6917.866,95.437,540.597,538.866,0.0
53981.0,STARLINK-5149,PAYLOAD,2024-04-02 11:40:31,15.08855833,0.0001347,53.2153,134.1632,83.5378,276.5767,0.0005162,7.94e-05,0.0,0 STARLINK-5149,1 53981U 22125T   24093.48647351  .00007940  00000-0  51620-3 0  9991,2 53981  53.2153 134.1632 0001347  83.5378 276.5767 15.08855833 82990,6917.832,95.437,540.629,538.765,0.0
53981.0,STARLINK-5149,PAYLOAD,2024-04-02 19:37:27,15.08847972,0.0001342,53.2152,132.6762,79.3142,280.8002,0.00017487,2.497e-05,0.0,0 STARLINK-5149,1 53981U 22125T   24093.81767406  .00002497  00000-0  17487-3 0  9997,2 53981  53.2152 132.6762 0001342  79.3142 280.8002 15.08847972 83045,6917.856,95.437,540.649,538.793,0.0
53981.0,STARLINK-5149,PAYLOAD,2024-04-03 11:31:18,15.08839669,0.0001594,53.2155,129.7028,78.017,282.1,8.764e-05,1.107e-05,0.0,0 STARLINK-5149,1 53981U 22125T   24094.48007815  .00001107  00000-0  87640-4 0  9998,2 53981  53.2155 129.7028 0001594  78.0170 282.1000 15.08839669 83212,6917.881,95.438,540.849,538.644,0.0
53981.0,STARLINK-5149,PAYLOAD,2024-04-03 19:28:14,15.0884137,0.000162,53.2154,128.2167,79.1358,280.9816,3.5852e-05,2.83e-06,0.0,0 STARLINK-5149,1 53981U 22125T   24094.81127720  .00000283  00000-0  35852-4 0  9995,2 53981  53.2154 128.2167 0001620  79.1358 280.9816 15.08841370 83199,6917.876,95.437,540.862,538.621,0.0
53981.0,STARLINK-5149,PAYLOAD,2024-04-04 11:22:05,15.08847478,0.0001469,53.2161,125.2423,80.5471,279.5688,4.7393e-05,4.67e-06,0.0,0 STARLINK-5149,1 53981U 22125T   24095.47367531  .00000467  00000-0  47393-4 0  9991,2 53981  53.2161 125.2423 0001469  80.5471 279.5688 15.08847478 83299,6917.858,95.437,540.739,538.706,0.0
53981.0,STARLINK-5149,PAYLOAD,2024-04-04 19:19:01,15.08839139,0.0001526,53.2159,123.7553,81.9458,278.1708,0.00014407,2.006e-05,0.0,0 STARLINK-5149,1 53981U 22125T   24095.80487844  .00002006  00000-0  14407-3 0  9998,2 53981  53.2159 123.7553 0001526  81.9458 278.1708 15.08839139 83414,6917.883,95.438,540.804,538.692,0.0
53981.0,STARLINK-5149,PAYLOAD,2024-04-05 08:02:06,15.08843484,0.0001495,53.2156,121.375,82.7665,277.3497,0.00010415,1.37e-05,0.0,0 STARLINK-5149,1 53981U 22125T   24096.33479558  .00001370  00000-0  10415-3 0  9998,2 53981  53.2156 121.3750 0001495  82.7665 277.3497 15.08843484 83423,6917.87,95.437,540.769,538.701,0.0
53981.0,STARLINK-5149,PAYLOAD,2024-04-05 19:09:48,15.08843282,0.0001487,53.2158,119.2934,82.5438,277.5723,9.88e-05,1.285e-05,0.0,0 STARLINK-5149,1 53981U 22125T   24096.79847467  .00001285  00000-0  98800-4 0  9996,2 53981  53.2158 119.2934 0001487  82.5438 277.5723 15.08843282 83499,6917.87,95.437,540.764,538.707,0.0
53981.0,STARLINK-5149,PAYLOAD,2024-04-06 01:31:20,15.088404,0.0001534,53.2155,118.1041,82.8167,277.3,6.6936e-05,7.77e-06,0.0,0 STARLINK-5149,1 53981U 22125T   24097.06343699  .00000777  00000-0  66936-4 0  9995,2 53981  53.2155 118.1041 0001534  82.8167 277.3000 15.08840400 83606,6917.879,95.438,540.805,538.683,0.0
53981.0,STARLINK-5149,PAYLOAD,2024-04-06 07:52:53,15.08841893,0.0001566,53.2162,116.9132,89.9989,270.1182,5.1134e-05,5.26e-06,0.0,0 STARLINK-5149,1 53981U 22125T   24097.32839593  .00000526  00000-0  51134-4 0  9993,2 53981  53.2162 116.9132 0001566  89.9989 270.1182 15.08841893 83571,6917.875,95.437,540.823,538.656,0.0
53981.0,STARLINK-5149,PAYLOAD,2024-04-07 10:54:27,15.08834941,0.0001563,53.2168,111.8586,90.9855,269.1316,-8.618e-06,-4.25e-06,0.0,0 STARLINK-5149,1 53981U 22125T   24098.45448370 -.00000425  00000-0 -86180-5 0  9997,2 53981  53.2168 111.8586 0001563  90.9855 269.1316 15.08834941 83747,6917.896,95.438,540.842,538.68,0.0
53981.0,STARLINK-5149,PAYLOAD,2024-04-08 10:45:13,15.0884173,0.0001521,53.2166,107.3988,90.9205,269.1962,9.4837e-05,1.222e-05,0.0,0 STARLINK-5149,1 53981U 22125T   24099.44807797  .00001222  00000-0  94837-4 0  9990,2 53981  53.2166 107.3988 0001521  90.9205 269.1962 15.08841730 83969,6917.875,95.437,540.792,538.688,0.0
